sat name,line 1,line2,NORAD,Status,Orbit,Uplink,Downlink,Frequency,FrequencyBand,Operator,Details,Reference,Notes
AMC-15,1 28446U 04041A   22158.36759521 -.00000076  00000+0  00000+0 0  9991,2 28446   0.0166   3.4334 0002561  63.8574 215.7280  1.00270544 64573,28446,Done,,,,,Ku/Ka,SES,,https://www.ses.com/our-coverage#/,
JB-3 3 (ZY 2C),1 28470U 04044A   22158.50410597  .00000403  00000+0  32854-4 0  9994,2 28470  97.2394  12.7126 0042893 273.2935  86.3386 15.03909357965717,28470,,,,,,,,,,
NAVSTAR 56 (USA 180),1 28474U 04045A   22157.35664416 -.00000080  00000+0  00000+0 0  9997,2 28474  55.3475  23.8881 0206401 278.9296 189.1282  2.00563837128918,28474,,,,,,,,,,
SWIFT,1 28485U 04047A   22158.29717228  .00002402  00000+0  12829-3 0  9990,2 28485  20.5577  21.6883 0010601 168.9335 191.1333 15.06371568962017,28485,,,,,,,,,,
HELIOS 2A,1 28492U 04049A   22158.40540669  .00001189  00000+0  11983-3 0  9997,2 28492  98.2340 100.9653 0015865 113.1238 247.1638 14.93129690933629,28492,,,,,,,,,,
NANOSAT-1,1 28493U 04049B   22158.59769207  .00000343  00000+0  59978-4 0  9997,2 28493  98.1120 259.3861 0003771 341.3546  18.7523 14.73986588938417,28493,,,,,,,,,,
COSMOS 2414,1 28521U 05002A   22158.44335108  .00000062  00000+0  38683-4 0  9990,2 28521  82.9511  75.8042 0039276 200.9657 158.9898 13.87657712880166,28521,,,,,,,,,,
NSS-10 (AMC-12),1 28526U 05003A   22158.30890882 -.00000238  00000+0  00000+0 0  9999,2 28526   2.7586  87.4593 0003007 331.3256 270.6562  1.00270479 38405,28526,Done,,,,,C,SES,,https://www.ses.com/our-coverage#/,
XTAR-EUR,1 28542U 05005A   22158.20957374  .00000164  00000+0  00000+0 0  9995,2 28542   0.5514  94.7249 0003224 343.5972 281.7206  1.00273373 63435,28542,,,,,,X,Hispasat,,https://www.hispasat.com/en/satellite-fleet/governmental-satellites,
XM-3 (RHYTHM),1 28626U 05008A   22158.51468594 -.00000192  00000+0  00000+0 0  9998,2 28626   0.0199 143.7778 0001420  35.2479 177.0366  1.00267663 27874,28626,,,,,,X,,,https://www.n2yo.com/satellite/?s=28626#results,
INMARSAT 4-F1,1 28628U 05009A   22158.58452126 -.00000249  00000+0  00000+0 0  9995,2 28628   3.6040  34.9517 0002937  42.6431 172.2858  1.00271643 62927,28628,,,,,,,,,,
IRS-P5 (CARTOSAT-1),1 28649U 05017A   22158.44193489  .00000375  00000+0  51000-4 0  9996,2 28649  97.7193 219.1600 0000722 158.2904 201.8341 14.84135656925251,28649,,,,,,,,,,
NOAA 18,1 28654U 05018A   22158.43254242  .00000116  00000+0  86629-4 0  9995,2 28654  98.9491 228.8762 0014136   4.6938 355.4363 14.12738597878567,28654,,,,,,VHF/L/UHF,NOAA,,https://space.oscar.wmo.int/satellites/view/noaa_18,
DIRECTV 8,1 28659U 05019A   22158.58123757  .00000014  00000+0  00000+0 0  9994,2 28659   0.0170 309.5743 0002792 122.5052 274.0773  1.00272863 62320,28659,,,,,,,,,,
GALAXY 28 (G-28),1 28702U 05022A   22158.51390097 -.00000172  00000+0  00000+0 0  9999,2 28702   0.0108 354.8747 0002188 120.5977 236.4105  1.00270562 37237,28702,Done,,,,,Ku/C,Intelsat S.A.,,https://www.intelsat.com/global-network/satellite-network/,
EXPRESS-AM3,1 28707U 05023A   22158.54126640  .00000077  00000+0  00000+0 0  9992,2 28707   3.5721  83.9342 0001955   1.4835  53.7744  0.98998022 38653,28707,,,,,,,,,,
SJ-7,1 28737U 05024A   22158.48933543  .00001659  00000+0  14651-3 0  9995,2 28737  97.7152 156.8352 0032848   0.6014 359.5242 14.97341281926508,28737,,,,,,,,,,
THAICOM 4,1 28786U 05028A   22158.28104837 -.00000350  00000+0  00000+0 0  9994,2 28786   0.0184 337.1644 0001572  84.7397  54.4189  1.00270043 37511,28786,,,,,,,,,,
GALAXY 14 (G-14),1 28790U 05030A   22158.53812656  .00000168  00000+0  00000+0 0  9991,2 28790   1.2372  92.3037 0001839 331.2015  59.0248  1.00271021 61563,28790,Done,,,,,C,Intelsat S.A.,,https://www.intelsat.com/global-network/satellite-network/,
REIMEI (INDEX),1 28810U 05031B   22158.58116094  .00001067  00000+0  11215-3 0  9996,2 28810  98.0561 220.8531 0026974 352.2349   7.8447 14.91440328910643,28810,,,,,,,,,,
ANIK F1R,1 28868U 05036A   22158.59448306 -.00000061  00000+0  00000+0 0  9999,2 28868   0.5345  93.6871 0003110 330.3005 298.6948  1.00271981 31700,28868,Done,,,,,C/Ku,Telesat,,https://www.telesat.com/wp-content/uploads/2020/12/Anik-F1R.pdf,
NAVSTAR 57 (USA 183),1 28874U 05038A   22158.27643177 -.00000050  00000+0  00000+0 0  9994,2 28874  56.0776 331.8777 0137188 274.4499 249.5560  2.00577089122335,28874,,,,,,,,,,
GALAXY 15 (G-15),1 28884U 05041A   22158.56285718  .00000092  00000+0  00000+0 0  9999,2 28884   0.0136  16.8986 0001735  62.0954 246.5555  1.00271662 60869,28884,Done,,,,,C,Intelsat S.A.,,https://www.intelsat.com/global-network/satellite-network/,
SYRACUSE 3A,1 28885U 05041B   22158.54100476  .00000141  00000+0  00000+0 0  9990,2 28885   1.0990  93.4628 0003164 341.4422  62.7713  1.00274067 61008,28885,,,,,,,,,,
BEIJING 1,1 28890U 05043A   22158.47814365  .00000109  00000+0  31472-4 0  9995,2 28890  98.1170 281.0676 0014769 201.0990 158.9605 14.61449918885689,28890,,,,,,,,,,
SINAH 1,1 28893U 05043D   22158.60315829  .00000131  00000+0  35709-4 0  9996,2 28893  98.1107 282.3847 0014769 198.8202 161.2455 14.61700946885518,28893,,,,,,,,,,
CUBESAT XI-V,1 28895U 05043F   22158.61078992  .00000521  00000+0  10748-3 0  9994,2 28895  98.1054 290.1417 0017037 168.0680 192.0929 14.64328765885977,28895,,,,,,,,,,
INMARSAT 4-F2,1 28899U 05044A   22158.19910747  .00000021  00000+0  00000+0 0  9996,2 28899   3.4935  37.2807 0002816  45.6298 308.2395  1.00272772 60767,28899,,,,,,,,,,
SPACEWAY 2,1 28903U 05046B   22158.55634444  .00000116  00000+0  00000+0 0  9996,2 28903   1.8832  88.1182 0000754 267.8029 321.3839  1.00271980 36594,28903,,,,,,C,,,https://www.n2yo.com/satellite/?s=28903#results,
COSMOS 2416,1 28908U 05048A   22158.45984035  .00000028  00000+0  11014-3 0  9999,2 28908  82.4667 168.0965 0006989 202.3982 272.5260 12.55519041754334,28908,,,,,,,,,,
METEOSAT-9 (MSG-2),1 28912U 05049B   22157.82313774  .00000139  00000+0  00000+0 0  9993,2 28912   5.9960  66.3702 0001384 348.5285 182.2796  1.00270833 60283,28912,,,,,,,,,,
EUTELSAT 174A,1 28924U 05052A   22158.61612189  .00000023  00000+0  00000+0 0  9992,2 28924   0.4853  92.2849 0006313 342.3837 217.1257  1.00272754 37580,28924,Done,,,,,Ku,Eutelsat S.A.,,https://www.eutelsat.com/en/satellites/eutelsat-174-east.html,
ECHOSTAR 10,1 28935U 06003A   22158.36242078 -.00000043  00000+0  00000+0 0  9992,2 28935   0.0280 241.2146 0002310 142.7468 252.0681  1.00271476 59722,28935,,,,,,,,,,
SPAINSAT,1 28945U 06007A   22158.37301353 -.00000203  00000+0  00000+0 0  9998,2 28945   0.0453 259.5199 0002673 200.7654 259.7524  1.00271102 59466,28945,,,,,,X/Ka,Hispasat,,https://www.hispasat.com/en/satellite-fleet/governmental-satellites/spainsat,
EUTELSAT HOTBIRD 13E,1 28946U 06007B   22158.21924358  .00000099  00000+0  00000+0 0  9990,2 28946   0.0550 156.5897 0004545 312.6045 238.3209  1.00271118 59564,28946,Done,,,,,Ku,Eutelsat S.A.,,https://www.eutelsat.com/en/satellites/eutelsat-13-east-hotbird.html,
JCSAT-5A,1 29045U 06010A   22158.59007559 -.00000315  00000+0  00000+0 0  9993,2 29045   0.0384 120.5182 0001691 314.9213 165.0054  1.00271481 59016,29045,,,,,,,,,,
ASTRA 1KR,1 29055U 06012A   22157.67441368  .00000131  00000+0  00000+0 0  9999,2 29055   0.0160 309.2415 0000996 165.9489  41.8531  1.00273275 30978,29055,Done,,,,,Ku,SES,,https://www.ses.com/our-coverage#/,
EROS B,1 29079U 06014A   22158.51635625  .00006537  00000+0  27301-3 0  9995,2 29079  97.3822 279.4121 0003403 357.4954  69.1981 15.23969479894867,29079,,,,,,,,,,
CLOUDSAT,1 29107U 06016A   22158.55310302  .00000132  00000+0  35394-4 0  9992,2 29107  98.3276 118.6081 0003135   1.6476 358.4735 14.62977183857583,29107,,,,,,,,,,
CALIPSO,1 29108U 06016B   22158.55231624  .00000440  00000+0  95559-4 0  9993,2 29108  98.3247 118.1767 0001593  83.2391 276.8991 14.62931625857573,29108,,,,,,,,,,
EWS-G1 (GOES 13),1 29155U 06018A   22158.47207321  .00000051  00000+0  00000+0 0  9995,2 29155   0.5754  96.9159 0002575  86.6138 303.6778  1.00269119 28637,29155,,,,,,ULF/F,NOAA,,https://space.oscar.wmo.int/satellites/view/goes_16,
EUTELSAT 113 WEST A,1 29162U 06020A   22158.58790894 -.00000024  00000+0  00000+0 0  9991,2 29162   0.0429 120.4588 0003035 316.8718 277.2698  1.00271382 58727,29162,Done,,,,,C/Ku,Eutelsat S.A.,,https://www.eutelsat.com/en/satellites/eutelsat-113-west.html,
RESURS-DK 1,1 29228U 06021A   22158.36972080  .00000544  00000+0  47317-4 0  9993,2 29228  69.9336 154.7149 0001523  52.1900 307.9399 15.03216997880863,29228,,,,,,,,,,
GALAXY 16 (G-16),1 29236U 06023A   22158.60458845 -.00000114  00000+0  00000+0 0  9996,2 29236   0.0415 110.9965 0003153 337.8444 285.7874  1.00274185 58226,29236,Done,,,,,Ku/C,Intelsat S.A.,,https://www.intelsat.com/global-network/satellite-network/,
GENESIS 1,1 29252U 06029A   22158.40037759  .00002285  00000+0  10874-3 0  9999,2 29252  64.5211 104.1115 0059371 263.9155  95.5202 15.20608565877441,29252,,,,,,,,,,
ARIRANG-2 (KOMPSAT-2),1 29268U 06031A   22158.44417846  .00000219  00000+0  52222-4 0  9991,2 29268  97.8897  27.9144 0017635  46.1686 314.0961 14.62302392846438,29268,,,,,,,,,,
EUTELSAT HOTBIRD 13B,1 29270U 06032A   22158.31893891  .00000099  00000+0  00000+0 0  9997,2 29270   0.0685  15.4509 0004282  42.5747 325.4823  1.00271665 32550,29270,Done,,,,,Ku,Eutelsat S.A.,,https://www.eutelsat.com/en/satellites/eutelsat-13-east-hotbird.html,
JCSAT-3A,1 29272U 06033A   22158.59007559 -.00000332  00000+0  00000+0 0  9999,2 29272   0.0467 110.3971 0002216 343.6872 142.3063  1.00272406 32991,29272,,,,,,,,,,
SYRACUSE 3B,1 29273U 06033B   22158.38705103 -.00000031  00000+0  00000+0 0  9993,2 29273   0.0272  97.6690 0005171 343.7544 308.4817  1.00271538 57951,29273,,,,,,,,,,
KOREASAT 5 (MUGUNGWHA 5),1 29349U 06034A   22158.05191726 -.00000346  00000+0  00000+0 0  9991,2 29349   0.0407 117.7282 0001172 317.7180 311.7494  1.00271935 26562,29349,,,,,,,,,,
HINODE (SOLAR-B),1 29479U 06041A   22158.46852417  .00000282  00000+0  61843-4 0  9994,2 29479  98.1211 173.7598 0017041 256.2351 103.6955 14.64819911839296,29479,,,,,,,,,,
